{
    "version": 0.6,
    "generator": "Overpass API 0.7.62.8 e802775f",
    "osm3s": {
        "timestamp_osm_base": "2025-11-19T14:07:12Z",
        "copyright": "The data included in this document is from www.openstreetmap.org. The data is made available under ODbL."
    },
    "elements": [
        {
            "type": "node",
            "id": 3199588062,
            "lat": 34.7414607,
            "lon": 135.4970698,
            "timestamp": "2025-06-10T04:01:36Z",
            "version": 5,
            "changeset": 167425161,
            "user": "t_matsukura",
            "uid": 21292672,
            "tags": {
                "addr:block_number": "4番地",
                "addr:city": "大阪市",
                "addr:housenumber": "11",
                "addr:neighbourhood": "4丁目",
                "addr:postcode": "532-0002",
                "addr:province": "大阪府",
                "addr:quarter": "東三国",
                "addr:suburb": "淀川区",
                "amenity": "restaurant",
                "check_date": "2025-06-10",
                "contact:instagram": "jinqro_soba",
                "cuisine": "soba",
                "name": "甚九郎"
            }
        },
        {
            "type": "node",
            "id": 10044742347,
            "lat": 34.7400123,
            "lon": 135.5060998,
            "timestamp": "2025-06-14T01:19:59Z",
            "version": 4,
            "changeset": 167596403,
            "user": "t_matsukura",
            "uid": 21292672,
            "tags": {
                "addr:block_number": "17番",
                "addr:city": "大阪市",
                "addr:housenumber": "3号",
                "addr:neighbourhood": "1丁目",
                "addr:postcode": "533-0031",
                "addr:province": "大阪府",
                "addr:quarter": "西淡路",
                "addr:suburb": "東淀川区",
                "amenity": "cafe",
                "check_date": "2025-06-14",
                "contact:instagram": "kissaaoiclub",
                "level": "0",
                "name": "喫茶あおい",
                "opening_hours": "Mo,We-Su 11:00-20:00",
                "outdoor_seating": "no",
                "website": "https://kissaaoiclub.com/",
                "wheelchair": "yes"
            }
        },
        {
            "type": "node",
            "id": 10159597169,
            "lat": 34.7484742,
            "lon": 135.4915614,
            "timestamp": "2024-11-04T03:06:40Z",
            "version": 5,
            "changeset": 158724098,
            "user": "Yodogawa residents",
            "uid": 21448271,
            "tags": {
                "addr:block_number": "15番",
                "addr:city": "大阪市",
                "addr:housenumber": "1号",
                "addr:neighbourhood": "2丁目",
                "addr:postcode": "532-0001",
                "addr:province": "大阪府",
                "addr:quarter": "十八条",
                "addr:suburb": "淀川区",
                "amenity": "social_facility",
                "check_date": "2024-09-30",
                "contact:instagram": "cocokara100",
                "name": "ここから100",
                "social_facility": "outreach",
                "social_facility:for": "senior",
                "website": "https://cocokara100.com/"
            }
        },
        {
            "type": "node",
            "id": 10159629410,
            "lat": 34.7443237,
            "lon": 135.4949677,
            "timestamp": "2025-10-27T12:33:58Z",
            "version": 9,
            "changeset": 173836200,
            "user": "河内 一晃",
            "uid": 23440651,
            "tags": {
                "addr:block_number": "12番",
                "addr:city": "大阪市",
                "addr:housenumber": "15号",
                "addr:neighbourhood": "6丁目",
                "addr:postcode": "532-0002",
                "addr:province": "大阪府",
                "addr:quarter": "東三国",
                "addr:suburb": "淀川区",
                "amenity": "social_facility",
                "check_date": "2025-10-27",
                "contact:instagram": "cocokara100",
                "name": "ここコミュ",
                "operator": "特定非営利活動法人ここから100",
                "social_facility": "outreach",
                "website": "https://cocokara100.com/"
            }
        },
        {
            "type": "node",
            "id": 10576279110,
            "lat": 34.7399212,
            "lon": 135.4998969,
            "timestamp": "2025-11-19T05:31:52Z",
            "version": 4,
            "changeset": 174843336,
            "user": "t_matsukura",
            "uid": 21292672,
            "tags": {
                "addr:block_number": "20番",
                "addr:city": "大阪市",
                "addr:housenumber": "11号",
                "addr:neighbourhood": "1丁目",
                "addr:postcode": "532-0002",
                "addr:province": "大阪府",
                "addr:quarter": "東三国",
                "addr:suburb": "淀川区",
                "check_date": "2025-10-28",
                "contact:instagram": "and.care.7340",
                "name": "&Care",
                "opening_hours": "10:00-24:00",
                "phone": "06-6398-7340",
                "shop": "massage"
            }
        },
        {
            "type": "node",
            "id": 10581060741,
            "lat": 34.7378285,
            "lon": 135.4992584,
            "timestamp": "2025-06-18T11:16:23Z",
            "version": 5,
            "changeset": 167777442,
            "user": "t_matsukura",
            "uid": 21292672,
            "tags": {
                "addr:block_number": "19番",
                "addr:city": "大阪市",
                "addr:housenumber": "23号",
                "addr:neighbourhood": "1丁目",
                "addr:postcode": "532-0003",
                "addr:province": "大阪府",
                "addr:quarter": "宮原",
                "addr:suburb": "淀川区",
                "check_date": "2025-06-10",
                "contact:instagram": "mosaique_salon",
                "name": "MOSAIQUE",
                "shop": "hairdresser",
                "website": "http://www.mosaique.co.jp"
            }
        },
        {
            "type": "node",
            "id": 10927885661,
            "lat": 34.7363644,
            "lon": 135.4939976,
            "timestamp": "2025-06-18T11:16:23Z",
            "version": 6,
            "changeset": 167777442,
            "user": "t_matsukura",
            "uid": 21292672,
            "tags": {
                "addr:block_number": "3番",
                "addr:city": "大阪市",
                "addr:housenumber": "35号1階",
                "addr:neighbourhood": "2丁目",
                "addr:postcode": "532-0004",
                "addr:province": "大阪府",
                "addr:quarter": "西宮原",
                "addr:suburb": "淀川区",
                "check_date": "2025-06-18",
                "contact:instagram": "choisir_natural",
                "level": "0",
                "name": "choisir",
                "name:ja": "ショワジール",
                "shop": "wine",
                "website": "https://choisir.jp/"
            }
        },
        {
            "type": "node",
            "id": 11329292646,
            "lat": 34.7416739,
            "lon": 135.4909133,
            "timestamp": "2025-06-10T03:22:32Z",
            "version": 4,
            "changeset": 167424586,
            "user": "t_matsukura",
            "uid": 21292672,
            "tags": {
                "addr:block_number": "１３番",
                "addr:city": "大阪市",
                "addr:housenumber": "7",
                "addr:neighbourhood": "１丁目",
                "addr:postcode": "5320006",
                "addr:province": "大阪府",
                "addr:quarter": "西三国",
                "addr:suburb": "淀川区",
                "check_date": "2025-06-10",
                "contact:instagram": "shinosaka_office",
                "name": "新大阪眼鏡店",
                "opening_hours": "10:00-18:30",
                "payment:cash": "yes",
                "payment:credit_cards": "yes",
                "payment:paypay": "yes",
                "phone": "06-6393-0836",
                "shop": "optician",
                "website": "https://www.matsukura-megane.co.jp/index.html#shinoosaka"
            }
        },
        {
            "type": "node",
            "id": 11888032081,
            "lat": 34.7398947,
            "lon": 135.4936566,
            "timestamp": "2024-09-22T06:35:13Z",
            "version": 3,
            "changeset": 156937134,
            "user": "K_Sakanoshita",
            "uid": 389520,
            "tags": {
                "addr:block_number": "20",
                "addr:city": "大阪市",
                "addr:housenumber": "15",
                "addr:neighbourhood": "4丁目",
                "addr:postcode": "5320002",
                "addr:province": "大阪府",
                "addr:quarter": "東三国",
                "addr:suburb": "淀川区",
                "amenity": "cafe",
                "check_date": "2024-08-17",
                "contact:instagram": "horang_i2023",
                "cuisine": "coffee_shop;sandwich;bakery",
                "name": "cafe HORANG-I",
                "name:ja": "カフェ　ホランイ",
                "opening_hours": "Mo,Su,PH off; Tu-Fr 11:00-19:00; Sa 11:00-18:00",
                "outdoor_seating": "yes"
            }
        },
        {
            "type": "node",
            "id": 11889023117,
            "lat": 34.7414369,
            "lon": 135.4970813,
            "timestamp": "2025-06-29T01:59:04Z",
            "version": 8,
            "changeset": 168248205,
            "user": "gc27",
            "uid": 7130304,
            "tags": {
                "addr:block_number": "4",
                "addr:city": "大阪市",
                "addr:floor": "6F",
                "addr:housename": "東明ビル",
                "addr:housenumber": "11",
                "addr:neighbourhood": "東三国四丁目",
                "addr:postcode": "532-0002",
                "addr:province": "大阪府",
                "addr:suburb": "淀川区",
                "beauty": "nails",
                "check_date": "2025-06-18",
                "contact:instagram": "mahalo_nail__teru",
                "internet_access": "no",
                "level": "5",
                "name": "Beauty Salon Mahalo",
                "opening_hours": "11:00-21:00",
                "payment:cash": "yes",
                "payment:credit_cards": "yes",
                "payment:debit_cards": "yes",
                "shop": "beauty"
            }
        },
        {
            "type": "node",
            "id": 11921174901,
            "lat": 34.7388451,
            "lon": 135.4864210,
            "timestamp": "2025-06-18T10:14:32Z",
            "version": 12,
            "changeset": 167774967,
            "user": "t_matsukura",
            "uid": 21292672,
            "tags": {
                "addr:block_number": "17番",
                "addr:city": "大阪市",
                "addr:housenumber": "3号",
                "addr:neighbourhood": "3丁目",
                "addr:postcode": "532-0006",
                "addr:province": "大阪府",
                "addr:quarter": "西三国",
                "addr:suburb": "淀川区",
                "amenity": "restaurant",
                "check_date": "2025-06-07",
                "contact:instagram": "1004_m1kun1_",
                "contact:twitter": "1004_m1kun1_",
                "cuisine": "korean",
                "name": "1004〜てんし〜",
                "opening_hours": "Mo,Su off; Tu-Sa 11:30-14:30,17:30-22:00",
                "phone": "+81 678975733",
                "wheelchair": "limited"
            }
        },
        {
            "type": "node",
            "id": 12139657247,
            "lat": 34.7442041,
            "lon": 135.4991540,
            "timestamp": "2025-06-18T11:16:23Z",
            "version": 4,
            "changeset": 167777442,
            "user": "t_matsukura",
            "uid": 21292672,
            "tags": {
                "addr:block_number": "31番",
                "addr:city": "大阪市",
                "addr:housenumber": "12号",
                "addr:neighbourhood": "2丁目",
                "addr:postcode": "532-0002",
                "addr:province": "大阪府",
                "addr:quarter": "東三国",
                "addr:suburb": "淀川区",
                "check_date": "2025-06-10",
                "contact:instagram": "kaminomise_micha",
                "name": "髪の店mi-cha",
                "shop": "hairdresser"
            }
        },
        {
            "type": "node",
            "id": 12139662094,
            "lat": 34.7425270,
            "lon": 135.4989727,
            "timestamp": "2025-06-18T11:16:23Z",
            "version": 3,
            "changeset": 167777442,
            "user": "t_matsukura",
            "uid": 21292672,
            "tags": {
                "addr:block_number": "37番",
                "addr:city": "大阪市",
                "addr:housenumber": "14号202号室",
                "addr:neighbourhood": "2丁目",
                "addr:postcode": "532-0002",
                "addr:province": "大阪府",
                "addr:quarter": "東三国",
                "addr:suburb": "淀川区",
                "check_date": "2024-08-27",
                "contact:instagram": "hs-ease.com",
                "name": "ヘアーサロン EASE",
                "shop": "hairdresser"
            }
        },
        {
            "type": "node",
            "id": 12141026024,
            "lat": 34.7442985,
            "lon": 135.4949887,
            "timestamp": "2025-08-05T12:11:13Z",
            "version": 10,
            "changeset": 170003044,
            "user": "K_Sakanoshita",
            "uid": 389520,
            "tags": {
                "addr:block_number": "12番",
                "addr:city": "大阪市",
                "addr:floor": "東三国6-12-15 2F",
                "addr:housenumber": "15号",
                "addr:neighbourhood": "6丁目",
                "addr:postcode": "532-0002",
                "addr:province": "大阪府",
                "addr:quarter": "東三国",
                "addr:suburb": "淀川区",
                "amenity": "studio",
                "check_date": "2025-08-05",
                "contact:instagram": "fmhime772",
                "contact:twitter": "fmhime772",
                "name": "エフエムひめ",
                "name:ja": "エフエムひめ",
                "studio": "radio",
                "website": "https://owaraipro.wixsite.com/honjopro/blank-1"
            }
        },
        {
            "type": "node",
            "id": 12141088959,
            "lat": 34.7416414,
            "lon": 135.4911304,
            "timestamp": "2025-06-10T03:22:32Z",
            "version": 5,
            "changeset": 167424586,
            "user": "t_matsukura",
            "uid": 21292672,
            "tags": {
                "addr:block_number": "１３番",
                "addr:city": "大阪市",
                "addr:housenumber": "4",
                "addr:neighbourhood": "１丁目",
                "addr:postcode": "532-0006",
                "addr:province": "大阪府",
                "addr:quarter": "西三国",
                "addr:suburb": "淀川区",
                "check_date": "2025-06-10",
                "contact:instagram": "hocomaru_workshop",
                "craft": "handicraft",
                "name": "まちかど工房 ほこまぁる",
                "operator:type": "private",
                "shop": "craft"
            }
        },
        {
            "type": "node",
            "id": 12141117386,
            "lat": 34.7384232,
            "lon": 135.4833331,
            "timestamp": "2025-06-10T03:55:45Z",
            "version": 3,
            "changeset": 167425069,
            "user": "t_matsukura",
            "uid": 21292672,
            "tags": {
                "addr:block_number": "8番",
                "addr:city": "大阪市",
                "addr:housenumber": "19号 三国ビル1階",
                "addr:neighbourhood": "4丁目",
                "addr:postcode": "532-0006",
                "addr:province": "大阪府",
                "addr:quarter": "西三国",
                "addr:suburb": "淀川区",
                "amenity": "cafe",
                "check_date": "2025-06-10",
                "fixme:type": "喫茶店",
                "name": "ASSIST阪急三国駅前店",
                "outdoor_seating": "no"
            }
        },
        {
            "type": "node",
            "id": 12141177241,
            "lat": 34.7441325,
            "lon": 135.4924068,
            "timestamp": "2024-11-04T02:26:19Z",
            "version": 4,
            "changeset": 158723583,
            "user": "Yodogawa residents",
            "uid": 21448271,
            "tags": {
                "addr:block_number": "21番",
                "addr:city": "大阪市",
                "addr:housenumber": "43号",
                "addr:neighbourhood": "1丁目",
                "addr:postcode": "532-0006",
                "addr:province": "大阪府",
                "addr:quarter": "西三国",
                "addr:suburb": "淀川区",
                "check_date": "2024-08-28",
                "name": "まごころ不動産 株式会社REAL",
                "office": "estate_agent",
                "website": "http://magocoro-real.com"
            }
        },
        {
            "type": "node",
            "id": 12143279382,
            "lat": 34.7366011,
            "lon": 135.4836383,
            "timestamp": "2024-11-04T02:24:34Z",
            "version": 4,
            "changeset": 158723556,
            "user": "Yodogawa residents",
            "uid": 21448271,
            "tags": {
                "addr:block_number": "36番",
                "addr:city": "大阪市",
                "addr:housenumber": "18号 2階",
                "addr:neighbourhood": "3丁目",
                "addr:postcode": "532-0005",
                "addr:province": "大阪府",
                "addr:quarter": "三国本町",
                "addr:suburb": "淀川区",
                "check_date": "2024-08-29",
                "name": "【姿勢改善×肩こり専門】らくりら 三国店",
                "shop": "massage",
                "website": "https://beauty.hotpepper.jp/kr/slnH000691754/"
            }
        },
        {
            "type": "node",
            "id": 12167450570,
            "lat": 34.7416782,
            "lon": 135.4917510,
            "timestamp": "2025-06-18T11:16:23Z",
            "version": 4,
            "changeset": 167777442,
            "user": "t_matsukura",
            "uid": 21292672,
            "tags": {
                "addr:block_number": "14番",
                "addr:city": "大阪市",
                "addr:housenumber": "1号",
                "addr:neighbourhood": "1丁目",
                "addr:postcode": "532-0006",
                "addr:province": "大阪府",
                "addr:quarter": "西三国",
                "addr:suburb": "淀川区",
                "amenity": "cafe",
                "check_date": "2025-06-10",
                "contact:instagram": "mayumi.s.1954",
                "name": "カフェ パーク",
                "outdoor_seating": "no"
            }
        },
        {
            "type": "node",
            "id": 12167450571,
            "lat": 34.7374913,
            "lon": 135.4827959,
            "timestamp": "2024-11-04T02:22:52Z",
            "version": 3,
            "changeset": 158723532,
            "user": "Yodogawa residents",
            "uid": 21448271,
            "tags": {
                "addr:block_number": "10番",
                "addr:city": "大阪市",
                "addr:housenumber": "17号",
                "addr:neighbourhood": "3丁目",
                "addr:postcode": "532-0033",
                "addr:province": "大阪府",
                "addr:quarter": "新高",
                "addr:suburb": "淀川区",
                "amenity": "pub",
                "check_date": "2024-09-05",
                "contact:instagram": "shukou0329",
                "name": "スタンディングバー酒甲",
                "website": "https://shu-kou.com/"
            }
        },
        {
            "type": "node",
            "id": 12167450572,
            "lat": 34.7399667,
            "lon": 135.4954424,
            "timestamp": "2025-11-19T06:07:29Z",
            "version": 4,
            "changeset": 174844029,
            "user": "t_matsukura",
            "uid": 21292672,
            "tags": {
                "addr:block_number": "18番",
                "addr:city": "大阪市",
                "addr:housenumber": "9号",
                "addr:neighbourhood": "4丁目",
                "addr:postcode": "532-0002",
                "addr:province": "大阪府",
                "addr:quarter": "東三国",
                "addr:suburb": "淀川区",
                "amenity": "restaurant",
                "check_date": "2024-09-10",
                "contact:instagram": "courage_2308",
                "cuisine": "italian",
                "name": "COURAGE"
            }
        },
        {
            "type": "node",
            "id": 12167610786,
            "lat": 34.7399121,
            "lon": 135.5010006,
            "timestamp": "2025-06-10T03:13:52Z",
            "version": 4,
            "changeset": 167424483,
            "user": "t_matsukura",
            "uid": 21292672,
            "tags": {
                "addr:block_number": "20番",
                "addr:city": "大阪市",
                "addr:housenumber": "2号",
                "addr:neighbourhood": "1丁目",
                "addr:postcode": "532-0002",
                "addr:province": "大阪府",
                "addr:quarter": "東三国",
                "addr:suburb": "淀川区",
                "amenity": "fast_food",
                "contact:instagram": "omusubi_on",
                "cuisine": "おにぎり;regional",
                "drive_through": "no",
                "name": "恩結び-on-",
                "takeaway": "yes"
            }
        },
        {
            "type": "node",
            "id": 12168207781,
            "lat": 34.7388391,
            "lon": 135.4864963,
            "timestamp": "2025-11-19T05:41:53Z",
            "version": 5,
            "changeset": 174843514,
            "user": "t_matsukura",
            "uid": 21292672,
            "tags": {
                "addr:block_number": "17番",
                "addr:city": "大阪市",
                "addr:housenumber": "2号",
                "addr:neighbourhood": "3丁目",
                "addr:postcode": "532-0006",
                "addr:province": "大阪府",
                "addr:quarter": "西三国",
                "addr:suburb": "淀川区",
                "check_date": "2025-06-07",
                "clothes": "children",
                "contact:instagram": "reminisce_2021",
                "name": "∞end",
                "name:ja": "エイトエンド",
                "shop": "clothes"
            }
        },
        {
            "type": "node",
            "id": 12193808822,
            "lat": 34.7398453,
            "lon": 135.4907109,
            "timestamp": "2024-09-23T04:50:51Z",
            "version": 1,
            "changeset": 156976468,
            "user": "t_matsukura",
            "uid": 21292672,
            "tags": {
                "addr:block_number": "3番",
                "addr:city": "大阪市",
                "addr:housenumber": "29号",
                "addr:neighbourhood": "1丁目",
                "addr:postcode": "532-0006",
                "addr:province": "大阪府",
                "addr:quarter": "西三国",
                "addr:suburb": "淀川区",
                "amenity": "community_centre",
                "name": "西淀川・淀川健康友の会 ふれあい三国支部 ふれあいセンター"
            }
        },
        {
            "type": "node",
            "id": 12204987985,
            "lat": 34.7384303,
            "lon": 135.4934829,
            "timestamp": "2025-06-14T00:47:54Z",
            "version": 4,
            "changeset": 167596081,
            "user": "t_matsukura",
            "uid": 21292672,
            "tags": {
                "addr:block_number": "2番地",
                "addr:city": "大阪市",
                "addr:housenumber": "1 1階",
                "addr:neighbourhood": "3丁目",
                "addr:postcode": "532-0004",
                "addr:province": "大阪府",
                "addr:quarter": "西宮原",
                "addr:room": "102",
                "addr:suburb": "淀川区",
                "amenity": "language_school",
                "name": "ECCジュニア西宮原3丁目教室",
                "website": "https://eccjuniorbs.jp/ht272129/"
            }
        },
        {
            "type": "node",
            "id": 12211634849,
            "lat": 34.7423094,
            "lon": 135.4980767,
            "timestamp": "2025-06-13T15:41:56Z",
            "version": 4,
            "changeset": 167581131,
            "user": "b-jazz-bot",
            "uid": 9451067,
            "tags": {
                "addr:block_number": "2番地",
                "addr:city": "大阪市",
                "addr:housenumber": "19号",
                "addr:neighbourhood": "5丁目",
                "addr:postcode": "532-0002",
                "addr:province": "大阪府",
                "addr:quarter": "東三国",
                "addr:suburb": "淀川区",
                "amenity": "cafe",
                "check_date": "2025-06-10",
                "contact:instagram": "KOUNOU-COFFEE",
                "cuisine": "coffee_shop",
                "name": "KOUNOU-COFFEE",
                "outdoor_seating": "no",
                "website": "https://kounou-coffee.com/"
            }
        },
        {
            "type": "node",
            "id": 12893905089,
            "lat": 34.7383390,
            "lon": 135.4857905,
            "timestamp": "2025-11-19T05:35:42Z",
            "version": 3,
            "changeset": 174843407,
            "user": "t_matsukura",
            "uid": 21292672,
            "tags": {
                "addr:block_number": "2番",
                "addr:city": "大阪市",
                "addr:housenumber": "15号2F",
                "addr:neighbourhood": "3丁目",
                "addr:postcode": "532-0006",
                "addr:province": "大阪府",
                "addr:quarter": "西三国",
                "addr:suburb": "淀川区",
                "amenity": "bar",
                "check_date": "2025-10-28",
                "contact:instagram": "kanna.min",
                "contact:twitter": "kanna.rithu",
                "name": "スナック　和灯",
                "opening_hours": "Mo-Tu 20:00-24:00 Th-Fr 20:00-24:00 Sa-Su 11:00-24:00"
            }
        },
        {
            "type": "node",
            "id": 12901109844,
            "lat": 34.7385281,
            "lon": 135.4936213,
            "timestamp": "2025-06-14T00:47:54Z",
            "version": 2,
            "changeset": 167596081,
            "user": "t_matsukura",
            "uid": 21292672,
            "tags": {
                "addr:block_number": "２番地",
                "addr:city": "大阪市",
                "addr:housenumber": "１号 ７０１",
                "addr:neighbourhood": "３丁目",
                "addr:postcode": "532-0004",
                "addr:province": "大阪府",
                "addr:quarter": "西宮原",
                "addr:suburb": "淀川区",
                "beauty": "spa",
                "check_date": "2025-06-10",
                "contact:instagram": "nie.mattariii",
                "name": "にぇんチ",
                "shop": "beauty"
            }
        },
        {
            "type": "node",
            "id": 12905884168,
            "lat": 34.7355087,
            "lon": 135.4814170,
            "timestamp": "2025-06-18T11:16:23Z",
            "version": 2,
            "changeset": 167777442,
            "user": "t_matsukura",
            "uid": 21292672,
            "tags": {
                "addr:block_number": "10番",
                "addr:city": "大阪市",
                "addr:housenumber": "25号",
                "addr:neighbourhood": "4丁目",
                "addr:postcode": "532-0033",
                "addr:province": "大阪府",
                "addr:quarter": "新高",
                "addr:suburb": "淀川区",
                "contact:instagram": "minkakokusanzai",
                "craft": "carpenter",
                "name": "建築士事務所 民家",
                "website": "https://min-ka.jp/"
            }
        },
        {
            "type": "node",
            "id": 13275548693,
            "lat": 34.7403467,
            "lon": 135.4997639,
            "timestamp": "2025-11-19T13:45:57Z",
            "version": 2,
            "changeset": 174860145,
            "user": "t_matsukura",
            "uid": 21292672,
            "tags": {
                "addr:block_number": "24番",
                "addr:city": "大阪市",
                "addr:housenumber": "8号 ショッピングプラザ内",
                "addr:neighbourhood": "1丁目",
                "addr:postcode": "532-0002",
                "addr:province": "大阪府",
                "addr:quarter": "東三国",
                "addr:suburb": "淀川区",
                "amenity": "cafe",
                "contact:instagram": "shoppingplazacoffee",
                "cuisine": "coffee_shop",
                "name": "ショッピングプラザコーヒー",
                "outdoor_seating": "no",
                "phone": "06-6392-3066"
            }
        },
        {
            "type": "way",
            "id": 271389852,
            "timestamp": "2024-09-23T03:05:20Z",
            "version": 6,
            "changeset": 156974873,
            "user": "K_Sakanoshita",
            "uid": 389520,
            "nodes": [
                2763436090,
                2763436091,
                2763436093,
                2763436094,
                2763436095,
                2763436090
            ],
            "tags": {
                "addr:block_number": "32番",
                "addr:city": "大阪市",
                "addr:housenumber": "4号",
                "addr:neighbourhood": "1丁目",
                "addr:postcode": "532-0002",
                "addr:province": "大阪府",
                "addr:quarter": "東三国",
                "addr:suburb": "淀川区",
                "amenity": "place_of_worship",
                "denomination": "jodo_shinshu",
                "name": "常光寺",
                "religion": "buddhist"
            }
        },
        {
            "type": "way",
            "id": 271389853,
            "timestamp": "2015-09-06T00:13:33Z",
            "version": 3,
            "changeset": 33823880,
            "user": "mfuji",
            "uid": 659706,
            "nodes": [
                2763436096,
                2763436097,
                2763436098,
                2763436099,
                2763436100,
                2763436101,
                2763436096
            ],
            "tags": {
                "amenity": "place_of_worship",
                "denomination": "obaku",
                "name": "自敬寺",
                "religion": "buddhist"
            }
        },
        {
            "type": "way",
            "id": 272227742,
            "timestamp": "2025-08-26T11:19:38Z",
            "version": 7,
            "changeset": 171023595,
            "user": "K_Sakanoshita",
            "uid": 389520,
            "nodes": [
                2771832435,
                2771832437,
                2771832454,
                13098174116,
                2771832438,
                2771832439,
                2771832469,
                13098174110,
                2771832451,
                2771832440,
                2771832443,
                2771832444,
                11472376715,
                2771832435
            ],
            "tags": {
                "addr:block_number": "35番",
                "addr:city": "大阪市",
                "addr:housenumber": "8号",
                "addr:neighbourhood": "3丁目",
                "addr:postcode": "532-0005",
                "addr:province": "大阪府",
                "addr:quarter": "三国本町",
                "addr:suburb": "淀川区",
                "amenity": "college",
                "contact:instagram": "osakabunka",
                "name": "学校法人ミクニ学園 大阪文化服装学院",
                "source": "Bing,2011-4",
                "website": "https://www.osaka-bunka.com/"
            }
        },
        {
            "type": "node",
            "id": 2763436090,
            "lat": 34.7409861,
            "lon": 135.4988688
        },
        {
            "type": "node",
            "id": 2763436091,
            "lat": 34.7409856,
            "lon": 135.4991727
        },
        {
            "type": "node",
            "id": 2763436093,
            "lat": 34.7406938,
            "lon": 135.4992272
        },
        {
            "type": "node",
            "id": 2763436094,
            "lat": 34.7406834,
            "lon": 135.4989492
        },
        {
            "type": "node",
            "id": 2763436095,
            "lat": 34.7407353,
            "lon": 135.4988693
        },
        {
            "type": "node",
            "id": 2763436096,
            "lat": 34.7421107,
            "lon": 135.4881782
        },
        {
            "type": "node",
            "id": 2763436097,
            "lat": 34.7421002,
            "lon": 135.4880872
        },
        {
            "type": "node",
            "id": 2763436098,
            "lat": 34.7418236,
            "lon": 135.4881590
        },
        {
            "type": "node",
            "id": 2763436099,
            "lat": 34.7417497,
            "lon": 135.4881890
        },
        {
            "type": "node",
            "id": 2763436100,
            "lat": 34.7417881,
            "lon": 135.4884938
        },
        {
            "type": "node",
            "id": 2763436101,
            "lat": 34.7421304,
            "lon": 135.4884542
        },
        {
            "type": "node",
            "id": 2771832435,
            "lat": 34.7360167,
            "lon": 135.4839360
        },
        {
            "type": "node",
            "id": 2771832437,
            "lat": 34.7360834,
            "lon": 135.4844702
        },
        {
            "type": "node",
            "id": 2771832438,
            "lat": 34.7364892,
            "lon": 135.4844392
        },
        {
            "type": "node",
            "id": 2771832439,
            "lat": 34.7364782,
            "lon": 135.4841570
        },
        {
            "type": "node",
            "id": 2771832440,
            "lat": 34.7362232,
            "lon": 135.4840177
        },
        {
            "type": "node",
            "id": 2771832443,
            "lat": 34.7360540,
            "lon": 135.4840276
        },
        {
            "type": "node",
            "id": 2771832444,
            "lat": 34.7360469,
            "lon": 135.4839330
        },
        {
            "type": "node",
            "id": 2771832451,
            "lat": 34.7362241,
            "lon": 135.4840661
        },
        {
            "type": "node",
            "id": 2771832454,
            "lat": 34.7361093,
            "lon": 135.4844699
        },
        {
            "type": "node",
            "id": 2771832469,
            "lat": 34.7364146,
            "lon": 135.4841608
        },
        {
            "type": "node",
            "id": 11472376715,
            "lat": 34.7360315,
            "lon": 135.4839345
        },
        {
            "type": "node",
            "id": 13098174110,
            "lat": 34.7364102,
            "lon": 135.4840512
        },
        {
            "type": "node",
            "id": 13098174116,
            "lat": 34.7361092,
            "lon": 135.4844581
        }
    ]
}